spkid,full_name,pdes,h,orbit_id,epoch,epoch.mjd,epoch.cal,e,a,q,i,om,w,ma,ad,n,tp,tp_cal,per,per_y,moid,moid_ld,moid_jup,t_jup,sigma_e,sigma_a,sigma_q,sigma_i,sigma_om,sigma_w,sigma_ma,sigma_ad,sigma_n,sigma_tp,sigma_per,class,producer,data_arc,first_obs,last_obs,n_obs_used,condition_code,rms,orbit_id_cad,jd,cd,dist,dist_min,dist_max,v_rel,v_inf,t_sigma_f,h_cad
2065803, 65803 Didymos (1996 GT),65803,18.0700000000000000,JPL 181,2459600.5000000000000000,59600,2022-01-21.0,0.3838000000000000,1.6440000000000000,1.0130000000000000,3.4100000000000000,73.2000000000000000,319.3200000000000000,232.0100000000000000,2.2800000000000000,0.4675000000000000,2459874.2900000000000000,2022-10-21.8,770.0000000000000000,2.1100000000000000,0.0403000000000000,15.7000000000000000,3.1700000000000000,4.2000000000000000,0.0000000027000000,0.0000000027000000,0.0000000052000000,0.0000013000000000,0.0000097000000000,0.0000110000000000,0.0000036000000000,0.0000000041000000,0.0000000013000000,0.0000082000000000,0.0000021000000000,APO,Steve Chesley,9066.0000000000000000,1996-04-11,2021-02-05,1046,0,0.3747600000000000,181,2482193.048828604,2083-11-29 13:10:00.000000,0.1472825289659920,0.1472594254447790,0.1473056325071650,9.5818065691133700,9.5799183320459900,00:03,18.0700000000000000
2065909, 65909 (1998 FH12),65909,19.2300000000000000,JPL 109,2459600.5000000000000000,59600,2022-01-21.0,0.5397000000000000,1.0910000000000000,0.5020000000000000,3.5600000000000000,108.6100000000000000,284.4800000000000000,52.1400000000000000,1.6800000000000000,0.8647000000000000,2459540.2000000000000000,2021-11-21.7,416.0000000000000000,1.1400000000000000,0.0127000000000000,4.9400000000000000,3.7600000000000000,5.5400000000000000,0.0000000340000000,0.0000000340000000,0.0000000370000000,0.0000028000000000,0.0000360000000000,0.0000360000000000,0.0000110000000000,0.0000000017000000,0.0000000013000000,0.0000120000000000,0.0000006300000000,APO,Otto Matic,8480.0000000000000000,1998-03-25,2021-06-12,421,0,0.4795600000000000,109,2486653.057222365,2096-02-14 13:22:00.000000,0.0626079598207562,0.0625662720724914,0.0626496643268863,15.3942127227314000,15.3914479188981000,00:03,19.2300000000000000
2065996, 65996 (1998 MX5),65996,18.4100000000000000,JPL 161,2459600.5000000000000000,59600,2022-01-21.0,0.6044000000000000,2.9380000000000000,1.1620000000000000,9.5500000000000000,265.2800000000000000,57.1600000000000000,247.8400000000000000,4.7100000000000000,0.1957000000000000,2460173.4800000000000000,2023-08-18.0,1840.0000000000000000,5.0400000000000000,0.2040000000000000,79.3000000000000000,0.9700000000000000,2.9500000000000000,0.0000000170000000,0.0000000170000000,0.0000000510000000,0.0000031000000000,0.0000160000000000,0.0000190000000000,0.0000027000000000,0.0000000091000000,0.0000000005700000,0.0000160000000000,0.0000053000000000,AMO,Otto Matic,9269.0000000000000000,1993-07-14,2018-11-29,939,0,0.4365000000000000,161,2467463.170530822,2043-08-01 16:06:00.000000,0.1884504821776270,0.1884500183283660,0.1884509460322550,7.2300611999117800,7.2281053664335000,< 00:01,18.4100000000000000
2066008, 66008 (1998 QH2),66008,16.0200000000000000,JPL 268,2459600.5000000000000000,59600,2022-01-21.0,0.3627000000000000,1.4260000000000000,0.9090000000000000,61.0100000000000000,168.9300000000000000,13.9600000000000000,51.6200000000000000,1.9400000000000000,0.5787000000000000,2459511.3000000000000000,2021-10-23.8,622.0000000000000000,1.7000000000000000,0.0765000000000000,29.8000000000000000,3.0400000000000000,4.1200000000000000,0.0000000170000000,0.0000000170000000,0.0000000240000000,0.0000017000000000,0.0000013000000000,0.0000028000000000,0.0000068000000000,0.0000000052000000,0.0000000023000000,0.0000110000000000,0.0000025000000000,APO,Otto Matic,8905.0000000000000000,1996-06-23,2020-11-09,1318,0,0.4746900000000000,268,2483761.043304267,2088-03-15 13:02:00.000000,0.1529328364917090,0.1529279092232440,0.1529377663004820,33.9777782090333000,33.9772654422157000,< 00:01,16.0200000000000000
2066063, 66063 (1998 RO1),66063,17.8500000000000000,JPL 126,2459600.5000000000000000,59600,2022-01-21.0,0.7201000000000000,0.9910000000000000,0.2770000000000000,22.6900000000000000,351.8500000000000000,151.1600000000000000,147.5600000000000000,1.7000000000000000,0.9991000000000000,2459452.8100000000000000,2021-08-26.3,360.0000000000000000,0.9860000000000000,0.0925000000000000,36.0000000000000000,3.3500000000000000,5.8100000000000000,0.0000000720000000,0.0000000720000000,0.0000000710000000,0.0000090000000000,0.0000060000000000,0.0000082000000000,0.0000260000000000,0.0000000047000000,0.0000000041000000,0.0000260000000000,0.0000015000000000,ATE,Otto Matic,9064.0000000000000000,1996-09-12,2021-07-07,1321,0,0.4299600000000000,126,2480298.296882081,2078-09-21 19:08:00.000000,0.1969574002985730,0.1969491718746200,0.1969656288245530,29.2839634525921000,29.2835014827524000,< 00:01,17.8500000000000000
2066146, 66146 (1998 TU3),66146,14.4900000000000000,JPL 320,2459600.5000000000000000,59600,2022-01-21.0,0.4838000000000000,0.7874000000000000,0.4060000000000000,5.4100000000000000,102.0000000000000000,84.8400000000000000,260.5100000000000000,1.1700000000000000,1.4110000000000000,2459671.0300000000000000,2022-04-01.5,255.0000000000000000,0.6990000000000000,0.0731000000000000,28.5000000000000000,3.7900000000000000,7.2900000000000000,0.0000000350000000,0.0000000350000000,0.0000000270000000,0.0000007700000000,0.0000110000000000,0.0000130000000000,0.0000094000000000,0.0000000021000000,0.0000000038000000,0.0000068000000000,0.0000006900000000,ATE,Otto Matic,14260.0000000000000000,1982-12-04,2021-12-19,1580,0,0.3667600000000000,321,2487576.105582586,2098-08-25 14:32:00.000000,0.0824150813709844,0.0824144027851867,0.0824157599855840,13.8353859242108000,13.8330489653488000,< 00:01,14.4900000000000000
2066253, 66253 (1999 GT3),66253,18.4000000000000000,JPL 75,2459600.5000000000000000,59600,2022-01-21.0,0.8377000000000000,1.3340000000000000,0.2160000000000000,19.5000000000000000,157.3800000000000000,261.0900000000000000,323.7500000000000000,2.4500000000000000,0.6397000000000000,2459657.1700000000000000,2022-03-18.7,563.0000000000000000,1.5400000000000000,0.1940000000000000,75.3000000000000000,3.1500000000000000,4.4200000000000000,0.0000000260000000,0.0000000260000000,0.0000000350000000,0.0000046000000000,0.0000290000000000,0.0000260000000000,0.0000064000000000,0.0000000066000000,0.0000000026000000,0.0000100000000000,0.0000023000000000,APO,Otto Matic,8096.0000000000000000,1999-04-09,2021-06-08,382,0,0.5417700000000000,75,2479393.008917253,2076-03-30 12:13:00.000000,0.1991916588985010,0.1991912180688380,0.1991920997621200,30.1142307951401000,30.1137866011924000,< 00:01,18.4000000000000000
2066391, 66391 Moshup (1999 KW4),66391,16.5900000000000000,JPL 350,2459600.5000000000000000,59600,2022-01-21.0,0.6884000000000000,0.6424000000000000,0.2000000000000000,38.8800000000000000,244.9000000000000000,192.6500000000000000,182.5700000000000000,1.0800000000000000,1.9140000000000000,2459693.1800000000000000,2022-04-23.7,188.0000000000000000,0.5150000000000000,0.0139000000000000,5.4200000000000000,4.2200000000000000,8.5000000000000000,0.0000000060000000,0.0000000060000000,0.0000000039000000,0.0000008300000000,0.0000004700000000,0.0000017000000000,0.0000070000000000,0.0000000011000000,0.0000000028000000,0.0000038000000000,0.0000002800000000,ATE,Otto Matic,8486.0000000000000000,1998-05-29,2021-08-22,3687,0,0.2885200000000000,350,2484563.786519608,2090-05-27 06:53:00.000000,0.1455590108213050,0.1455544476620620,0.1455635739871930,24.2558146206221000,24.2550599383423000,< 00:01,16.5900000000000000
2066400, 66400 (1999 LT7),66400,19.2800000000000000,JPL 103,2459600.5000000000000000,59600,2022-01-21.0,0.5724000000000000,0.8555000000000000,0.3660000000000000,9.0700000000000000,79.8300000000000000,341.3600000000000000,81.5200000000000000,1.3500000000000000,1.2460000000000000,2459535.0600000000000000,2021-11-16.6,289.0000000000000000,0.7910000000000000,0.0593000000000000,23.1000000000000000,4.0000000000000000,6.7400000000000000,0.0000000510000000,0.0000000510000000,0.0000000430000000,0.0000053000000000,0.0000190000000000,0.0000200000000000,0.0000150000000000,0.0000000057000000,0.0000000079000000,0.0000120000000000,0.0000018000000000,ATE,Otto Matic,12466.0000000000000000,1987-04-21,2021-06-07,522,0,0.4899700000000000,103,2487518.078557131,2098-06-28 13:53:00.000000,0.1940300915513180,0.1940238717722400,0.1940363113492450,22.1498048363230000,22.1491848538068000,< 00:01,19.2800000000000000
2066407, 66407 (1999 LQ28),66407,18.9600000000000000,JPL 84,2459600.5000000000000000,59600,2022-01-21.0,0.1200000000000000,1.1980000000000000,1.0550000000000000,21.7700000000000000,95.0000000000000000,320.5100000000000000,296.4600000000000000,1.3400000000000000,0.7512000000000000,2459685.0900000000000000,2022-04-15.6,479.0000000000000000,1.3100000000000000,0.0960000000000000,37.3000000000000000,3.8900000000000000,5.2300000000000000,0.0000000480000000,0.0000000480000000,0.0000000570000000,0.0000053000000000,0.0000110000000000,0.0000240000000000,0.0000290000000000,0.0000000020000000,0.0000000017000000,0.0000390000000000,0.0000011000000000,AMO,Otto Matic,14144.0000000000000000,1982-07-27,2021-04-17,347,0,0.5243300000000000,84,2483679.409834396,2087-12-24 21:50:00.000000,0.1302495039603270,0.1302483633694170,0.1302506446509010,12.1860514952313000,12.1843726788965000,< 00:01,18.9600000000000000
